OBJECT_NAME,OBJECT_ID,EPOCH,MEAN_MOTION,ECCENTRICITY,INCLINATION,RA_OF_ASC_NODE,ARG_OF_PERICENTER,MEAN_ANOMALY,EPHEMERIS_TYPE,CLASSIFICATION_TYPE,NORAD_CAT_ID,ELEMENT_SET_NO,REV_AT_EPOCH,BSTAR,MEAN_MOTION_DOT,MEAN_MOTION_DDOT
KUZGTU 1 (RS47S),2023-091AV,2026-07-16T06:21:33.340608,15.30483755,.00099669,97.5049,262.0515,2.5140,357.6149,0,U,57217,999,16882,.21468447E-3,.6258E-4,0
SONATE-2,2024-043Q,2026-07-15T21:05:11.948064,15.60865200,.0006829,97.5558,349.0866,104.4767,255.7248,0,U,59112,999,13236,.32357E-3,.2697E-3,0
MESAT1,2024-125G,2026-07-16T03:18:19.677600,15.66521084,.00108936,97.2240,55.3450,109.3193,250.9247,0,U,60209,999,11409,.42190247E-3,.4412E-3,0
OOV-CUBE (TUBSAT-30),2024-128F,2026-07-16T04:45:53.038656,15.02875959,.00409801,61.9938,124.4033,140.2430,220.1678,0,U,60240,999,11047,.83085854E-4,.923E-5,0
COLIBRI-S (RS67S),2024-199M,2026-07-16T06:34:25.073184,15.48878671,.00091291,97.2944,71.4113,158.3498,201.8140,0,U,61746,999,14191,.2383861E-3,.12775E-3,0
HORS 3 (RS81S),2024-199U,2026-07-16T06:52:15.636576,15.56960905,.00072964,97.2928,73.7431,152.5685,207.5957,0,U,61753,999,14208,.31226619E-3,.22452E-3,0
HORS 4 (RS82S),2024-199V,2026-07-16T06:43:21.764928,15.62461663,.00071355,97.2869,75.1424,145.1137,215.0590,0,U,61754,999,14218,.37721364E-3,.33493E-3,0
SIT-2086,2024-199AF,2026-07-16T05:39:12.396960,15.55068086,.00083659,97.2884,74.0668,141.3001,218.8854,0,U,61764,999,13894,.32476622E-3,.21785E-3,0
HYPERVIEW 1G (RS66S),2024-199AP,2026-07-16T02:59:38.100192,15.85644400,.00083047,97.2784,78.4994,145.8282,214.3525,0,U,61772,999,13924,.73076883E-3,.179307E-2,0
ALTAIR (RS65S),2024-199AW,2026-07-16T06:33:29.234592,15.37520203,.00121597,97.2987,66.4370,192.4415,167.6531,0,U,61779,999,14158,.1691554E-3,.6157E-4,0
ASRTU-1 (AO-123),2024-199AY,2026-07-16T06:54:23.636448,15.36062548,.00131318,97.2958,65.6983,196.5484,163.5333,0,U,61781,999,13839,.11565896E-3,.3991E-4,0
SAMSAT-IONOSPHERE (RS75S),2024-199BB,2026-07-16T06:22:15.400992,15.60193831,.00093379,97.2891,73.8854,156.6382,203.5301,0,U,61784,999,14209,.40471432E-3,.32966E-3,0
RTU MIREA 1 (RS51S),2024-199BC,2026-07-16T06:47:32.440704,15.64371774,.00094198,97.2878,74.8999,151.8525,208.3246,0,U,61785,999,13901,.43432961E-3,.41654E-3,0
TEVEL2-4,2025-052D,2026-07-16T04:32:01.606272,15.35588389,.00034664,97.3863,93.6437,49.7684,310.3862,0,U,63213,999,7456,.30934274E-3,.10626E-3,0
TEVEL2-5,2025-052E,2026-07-16T05:06:26.018496,15.35400514,.00035022,97.3861,93.6070,51.0110,309.1445,0,U,63214,999,7456,.28732219E-3,.9803E-4,0
TEVEL2-6,2025-052F,2026-07-15T12:12:47.954304,15.35351129,.00036215,97.3871,92.8865,54.7007,305.4575,0,U,63215,999,7445,.343915E-3,.11734E-3,0
TEVEL2-1,2025-052H,2026-07-16T04:48:06.277824,15.34794260,.00041989,97.3839,93.1679,58.1893,301.9759,0,U,63217,999,7454,.28845962E-3,.9654E-4,0
TEVEL2-3,2025-052J,2026-07-16T04:38:46.320288,15.34856442,.0003915,97.3845,93.1873,60.2535,299.9097,0,U,63218,999,7454,.28883982E-3,.9686E-4,0
TEVEL2-2,2025-052K,2026-07-16T04:48:16.683840,15.34804967,.00042444,97.3834,93.1708,58.2058,301.9598,0,U,63219,999,7454,.28679822E-3,.9602E-4,0
OTP-2,2025-052AB,2026-07-16T04:18:16.787808,15.24344124,.00081592,97.3830,89.1785,68.3641,291.8465,0,U,63235,999,7428,.14973949E-3,.3595E-4,0
TEVEL2-9,2025-052AD,2026-07-16T05:10:45.818976,15.32751173,.00075991,97.3902,92.4971,54.3822,305.8127,0,U,63237,999,7447,.28068593E-3,.8808E-4,0
TEVEL2-7,2025-052AE,2026-07-16T04:43:58.329696,15.32434040,.00076742,97.3901,92.3819,54.1249,306.0705,0,U,63238,999,7446,.27847655E-3,.8651E-4,0
TEVEL2-8,2025-052AF,2026-07-15T22:40:08.313888,15.32415227,.0007741,97.3903,92.1059,55.6204,304.5769,0,U,63239,999,7442,.29548E-3,.9179E-4,0
INNOSAT 16 (RS92S7),2025-155C,2026-07-16T06:07:19.173792,15.25744480,.00124737,97.4585,164.2994,85.2113,275.0550,0,U,64878,999,8510,.11316809E-3,.2819E-4,0
GEOSCAN 6 (RS92S6),2025-155D,2026-07-16T06:39:17.436096,15.30666609,.00099425,97.4576,165.9559,79.0844,281.1515,0,U,64879,999,8521,.18752144E-3,.5488E-4,0
GEOSCAN 1 (RS92S1),2025-155E,2026-07-16T06:25:44.812128,15.31315347,.00098814,97.4572,166.1207,79.3147,280.9206,0,U,64880,999,8522,.20000483E-3,.5978E-4,0
239ALFEROV (RS61S),2025-155F,2026-07-16T06:13:39.799488,15.33687697,.00095873,97.4571,166.7753,79.2575,280.9746,0,U,64881,999,8526,.25299744E-3,.8172E-4,0
GEOSCAN 2 (RS92S2),2025-155Q,2026-07-16T06:09:27.892512,15.31572565,.00090071,97.4571,166.2732,69.6539,290.5669,0,U,64890,999,8523,.19446368E-3,.5856E-4,0
GEOSCAN 5 (RS92S5),2025-155R,2026-07-16T05:49:20.111232,15.33992771,.00086084,97.4563,166.9065,83.8130,276.4093,0,U,64891,999,8527,.23605355E-3,.7691E-4,0
GEOSCAN 4 (RS92S4),2025-155S,2026-07-16T06:56:06.703872,15.34162038,.00085316,97.4568,167.0106,84.0541,276.1674,0,U,64892,999,8528,.24332039E-3,.7973E-4,0
