KUZGTU 1 (RS47S)        
1 57217U 23091AV  26197.26496922  .00006258  00000+0  21468-3 0  9996
2 57217  97.5049 262.0515 0009966   2.5140 357.6149 15.30483755168822
SONATE-2                
1 59112U 24043Q   26196.87861051  .00026970  00000+0  32357-3 0  9997
2 59112  97.5558 349.0866 0006829 104.4767 255.7248 15.60865200132360
MESAT1                  
1 60209U 24125G   26197.13772775  .00044120  00000+0  42190-3 0  9994
2 60209  97.2240  55.3450 0010893 109.3193 250.9247 15.66521084114094
OOV-CUBE (TUBSAT-30)    
1 60240U 24128F   26197.19853054  .00000923  00000+0  83086-4 0  9991
2 60240  61.9938 124.4033 0040980 140.2430 220.1678 15.02875959110472
COLIBRI-S (RS67S)       
1 61746U 24199M   26197.27390131  .00012775  00000+0  23839-3 0  9999
2 61746  97.2944  71.4113 0009129 158.3498 201.8140 15.48878671141914
HORS 3 (RS81S)          
1 61753U 24199U   26197.28629209  .00022452  00000+0  31227-3 0  9992
2 61753  97.2928  73.7431 0007296 152.5685 207.5957 15.56960905142088
HORS 4 (RS82S)          
1 61754U 24199V   26197.28011302  .00033493  00000+0  37721-3 0  9994
2 61754  97.2869  75.1424 0007135 145.1137 215.0590 15.62461663142185
SIT-2086                
1 61764U 24199AF  26197.23556015  .00021785  00000+0  32477-3 0  9999
2 61764  97.2884  74.0668 0008365 141.3001 218.8854 15.55068086138942
HYPERVIEW 1G (RS66S)    
1 61772U 24199AP  26197.12474653  .00179307  00000+0  73077-3 0  9998
2 61772  97.2784  78.4994 0008304 145.8282 214.3525 15.85644400139246
ALTAIR (RS65S)          
1 61779U 24199AW  26197.27325503  .00006157  00000+0  16916-3 0  9991
2 61779  97.2987  66.4370 0012159 192.4415 167.6531 15.37520203141580
ASRTU-1 (AO-123)        
1 61781U 24199AY  26197.28777357  .00003991  00000+0  11566-3 0  9992
2 61781  97.2958  65.6983 0013131 196.5484 163.5333 15.36062548138396
SAMSAT-IONOSPHERE (RS7*)
1 61784U 24199BB  26197.26545603  .00032966  00000+0  40471-3 0  9991
2 61784  97.2891  73.8854 0009337 156.6382 203.5301 15.60193831142099
RTU MIREA 1 (RS51S)     
1 61785U 24199BC  26197.28301436  .00041654  00000+0  43433-3 0  9993
2 61785  97.2878  74.8999 0009419 151.8525 208.3246 15.64371774139010
TEVEL2-4                
1 63213U 25052D   26197.18890748  .00010626  00000+0  30934-3 0  9995
2 63213  97.3863  93.6437 0003466  49.7684 310.3862 15.35588389 74562
TEVEL2-5                
1 63214U 25052E   26197.21280114  .00009803  00000+0  28732-3 0  9998
2 63214  97.3861  93.6070 0003502  51.0110 309.1445 15.35400514 74561
TEVEL2-6                
1 63215U 25052F   26196.50888836  .00011734  00000+0  34391-3 0  9999
2 63215  97.3871  92.8865 0003621  54.7007 305.4575 15.35351129 74451
TEVEL2-1                
1 63217U 25052H   26197.20007266  .00009654  00000+0  28846-3 0  9995
2 63217  97.3839  93.1679 0004198  58.1893 301.9759 15.34794260 74546
TEVEL2-3                
1 63218U 25052J   26197.19359167  .00009686  00000+0  28884-3 0  9991
2 63218  97.3845  93.1873 0003915  60.2535 299.9097 15.34856442 74545
TEVEL2-2                
1 63219U 25052K   26197.20019310  .00009602  00000+0  28680-3 0  9999
2 63219  97.3834  93.1708 0004244  58.2058 301.9598 15.34804967 74549
OTP-2                   
1 63235U 25052AB  26197.17936097  .00003595  00000+0  14974-3 0  9999
2 63235  97.3830  89.1785 0008159  68.3641 291.8465 15.24344124 74286
TEVEL2-9                
1 63237U 25052AD  26197.21580809  .00008808  00000+0  28069-3 0  9994
2 63237  97.3902  92.4971 0007599  54.3822 305.8127 15.32751173 74472
TEVEL2-7                
1 63238U 25052AE  26197.19720289  .00008651  00000+0  27848-3 0  9990
2 63238  97.3901  92.3819 0007674  54.1249 306.0705 15.32434040 74462
TEVEL2-8                
1 63239U 25052AF  26196.94454067  .00009179  00000+0  29548-3 0  9996
2 63239  97.3903  92.1059 0007741  55.6204 304.5769 15.32415227 74426
INNOSAT 16 (RS92S7)     
1 64878U 25155C   26197.25508303  .00002819  00000+0  11317-3 0  9997
2 64878  97.4585 164.2994 0012473  85.2113 275.0550 15.25744480 85103
GEOSCAN 6 (RS92S6)      
1 64879U 25155D   26197.27728514  .00005488  00000+0  18752-3 0  9993
2 64879  97.4576 165.9559 0009942  79.0844 281.1515 15.30666609 85211
GEOSCAN 1 (RS92S1)      
1 64880U 25155E   26197.26787977  .00005978  00000+0  20000-3 0  9995
2 64880  97.4572 166.1207 0009881  79.3147 280.9206 15.31315347 85229
239ALFEROV (RS61S)      
1 64881U 25155F   26197.25948842  .00008172  00000+0  25300-3 0  9992
2 64881  97.4571 166.7753 0009587  79.2575 280.9746 15.33687697 85263
GEOSCAN 2 (RS92S2)      
1 64890U 25155Q   26197.25657283  .00005856  00000+0  19446-3 0  9998
2 64890  97.4571 166.2732 0009007  69.6539 290.5669 15.31572565 85238
GEOSCAN 5 (RS92S5)      
1 64891U 25155R   26197.24259388  .00007691  00000+0  23605-3 0  9993
2 64891  97.4563 166.9065 0008608  83.8130 276.4093 15.33992771 85272
GEOSCAN 4 (RS92S4)      
1 64892U 25155S   26197.28896648  .00007973  00000+0  24332-3 0  9995
2 64892  97.4568 167.0106 0008531  84.0541 276.1674 15.34162038 85289
